name,address1,address2,address3,borough_name,website,os_addressbase_uprn,borough_code,ward_2018_name,ward_2018_code,longitude,latitude,easting,northing
Above The Stag Theatre,72 Albert Embankment, Vauxhall,NA,Wandsworth,http://www.abovethestag.com/,2.00E+11,E09000032,Queenstown,E05000620,-0.127382453,51.48312519,529902.638,177789.8928
Adelphi Theatre,Strand, London,NA,City of Westminster,http://www.reallyusefultheatres.co.uk/our-theatres/adelphi,1.00E+11,E09000033,St. James's,E05000644,-0.124424545,51.5106376,530029.586,180853.9679
Aldwych Theatre,49 Aldwych,NA,NA,City of Westminster,https://www.nederlander.co.uk/aldwych-theatre,1.00E+11,E09000033,St. James's,E05000644,-0.120469995,51.51358639,530295.5105,181188.857
Alexandra Palace Theatre,Alexandra Palace, Alexandra Palace Way,NA,Haringey,http://www.alexandrapalace.com/,10003974918,E09000014,Alexandra,E05000266,-0.132110964,51.59498395,529256.8126,190217.9562
Almeida Theatre,Almeida St, Islington,NA,Islington,https://almeida.co.uk/,5300001086,E09000019,St. Mary's,E05000379,-0.105570065,51.53995318,531253.2183,184146.9795
Ambassadors Theatre,West St,NA,NA,City of Westminster,https://www.theambassadorstheatre.co.uk/Online/,5110511,E09000033,West End,E05000649,-0.129569398,51.51350874,529664.5109,181164.0438
Andrew Lloyd Webber Foundation Theatre,Arts Ed, 14 Bath Rd, Chiswick,Hounslow,http://www.reallyusefultheatres.co.uk/our-group/andrew-lloyd-webber,2.00E+11,E09000018,Chiswick Homefields,E05000348,-0.254003676,51.49647058,521077.655,179056.3352
Apollo Theatre,Shaftesbury Ave, Soho,NA,City of Westminster,https://www.nimaxtheatres.com/theatres/apollo-theatre/,10033548808,E09000033,West End,E05000649,-0.134987535,51.51201028,529292.9012,180987.8489
Apollo Victoria,17 Wilton Rd, Pimlico,NA,City of Westminster,https://www.theapollovictoria.com/,1.00E+11,E09000033,Warwick,E05000647,-0.144258315,51.49628761,528694.0801,179223.4437
Applecart Arts,170 Harold Rd,NA,NA,Newham,http://www.applecartarts.com/,10012836969,E09000025,Plaistow North,E05000489,0.025974218,51.53441802,540389.9778,183775.9528
Arcola Theatre,24 Ashwin St, Dalston,NA,Islington,https://www.arcolatheatre.com/,10008321023,E09000019,Mildmay,E05000377,-0.076943219,51.54760619,533215.5157,185049.5615
Arthouse,159A Tottenham Lane,NA,NA,Haringey,NA,1.00E+11,E09000014,Hornsey,E05000273,-0.12154867,51.58233814,530024.3444,188830.7512
Arts Theatre,6-7 Great Newport St, London,NA,City of Westminster,https://artstheatrewestend.co.uk/,1.00E+11,E09000033,St. James's,E05000644,-0.129054132,51.51264433,529702.711,181068.8526
artsdepot,5 Nether St, Tally Ho Corner, North Finchley,Barnet,https://www.artsdepot.co.uk/,200198999,E09000003,West Finchley,E05000061,-0.177899683,51.61346127,526034.9403,192192.2358
Ashcroft Theatre (Fairfield Halls),Park Lane,NA,NA,Croydon,https://en.wikipedia.org/wiki/Ashcroft_Theatre,1.00E+11,E09000008,Fairfield,E05011468,-0.097382917,51.37305115,532302.9563,165605.8937
"Assembly Rooms, Surbiton",138 Maple Road, Surbiton,NA,Kingston upon Thames,NA,128012933,E09000021,Grove,E05000408,-0.308425963,51.39623937,517558.3387,167823.8372
Bacon's College Theatre,Timber Pond Road, Rotherhithe,NA,Southwark,NA,2.00E+11,E09000028,Rotherhithe,E05011112,-0.043862524,51.50287556,535641.5278,180137.3208
Barbican Theatre,Silk St,NA,NA,City and County of the City of London,https://www.barbican.org.uk/,95512046,E09000001,Aldersgate,E05009288,-0.095713605,51.52047017,531992.9287,181998.6097
Barons Court Theatre,28a Comeragh Rd,NA,NA,Hammersmith and Fulham,http://www.offwestend.com/index.php/theatres/view/42,34128758,E09000013,North End,E05000258,-0.212337518,51.48963907,523987.686,178366.6337
Battersea Arts Centre,Lavender Hill,NA,NA,Wandsworth,https://www.bac.org.uk/,121015942,E09000032,Shaftesbury,E05000623,-0.162414822,51.4656784,527519.5591,175788.5395
Battersea Barge,Nine Elms Lane,NA,NA,Wandsworth,http://www.batterseabarge.com/bbevents/,10025500313,E09000032,Queenstown,E05000620,-0.139325265,51.48265903,529074.9343,177716.9203
Battersea Power Station Village Hall,188 Kirtling St,NA,NA,Wandsworth,https://www.bac.org.uk/content/40704/to_archive/consultation_sessions_circus_west_village_hall_battersea_power_station,10091874090,E09000032,Queenstown,E05000620,-0.142272912,51.48170708,528873.0065,177605.8854
Bernie Grant Arts Centre,Town Hall Approach Rd, Tottenham Green,NA,Haringey,https://www.berniegrantcentre.co.uk/,10091817474,E09000014,Tottenham Green,E05000280,-0.074008677,51.58808293,533300.2656,189555.0689
Blackheath Halls,23 Lee Rd, Blackheath,NA,Lewisham,https://www.blackheathhalls.com/,1.00E+11,E09000023,Blackheath,E05000438,0.007909575,51.46530269,539348.2109,176057.3585
Bloomsbury Theatre,15 Gordon St, Bloomsbury,NA,Camden,https://www.thebloomsbury.com/,5007085,E09000007,Bloomsbury,E05000129,-0.134581862,51.52583301,529281.8748,182525.3838
Blue Elephant Theatre,59A Bethwin Rd, Camberwell,NA,Southwark,http://www.blueelephanttheatre.co.uk/,10090283293,E09000028,Camberwell Green,E05011096,-0.099891942,51.48065992,531818.0321,177564.9963
Bob Hope Theatre,2 Wythfield Rd, Eltham,NA,Greenwich,http://www.bobhopetheatre.co.uk/,1.00E+11,E09000011,Eltham South,E05000219,0.048885259,51.4500002,542241.234,174434.9687
Brick Lane Music Hall,443 North Woolwich Road,NA,NA,Newham,https://www.bricklanemusichall.co.uk/,10008988100,E09000025,Royal Docks,E05000491,0.041183788,51.50293962,541542.1685,180305.5737
Bridewell Theatre,14 Bride Ln, Fleet St,NA,City and County of the City of London,http://www.sbf.org.uk/venue-hire/bridewell-theatre/,95511225,E09000001,Castle Baynard,E05009297,-0.106603389,51.51401962,531256.1808,181261.831
Bridge House Theatre,2 High St,NA,NA,Bromley,https://www.bhtheatre.com/,1.00E+11,E09000006,Crystal Palace,E05000116,-0.062230219,51.41858406,534615.1075,170732.0355
Britten Opera Theatre,Royal College of Music, Prince Consort Road,NA,City of Westminster,NA,1.00E+11,E09000033,Knightsbridge and Belgravia,E05000637,-0.178465057,51.49979219,526310.5715,179553.4376
Broadway Theatre,Rushey Green,NA,NA,Lewisham,https://www.broadwaytheatre.org.uk/,10023226829,E09000023,Rushey Green,E05000451,-0.022921983,51.44572095,537266.0447,173822.028
Bromley Little Theatre,North Street, Bromley,NA,Bromley,http://bromleylittletheatre.org/,1.00E+11,E09000006,Bromley Town,E05000109,0.013632498,51.40821467,539920.1438,169721.4717
Brookside Theatre,21A Eastern Rd, Romford,NA,Havering,http://www.brooksidetheatre.com/,1.00E+11,E09000016,Romford Town,E05000319,0.183602281,51.57665762,551178.7655,188786.5171
Bunker Theatre,53A Southwark St,NA,NA,Southwark,https://www.bunkertheatre.com/,10093341165,E09000028,Borough & Bankside,E05011095,-0.096077229,51.5051726,532011.9504,180297.1728
Bush Theatre,7 Uxbridge Rd, Shepherd's Bush,NA,Hammersmith and Fulham,https://www.bushtheatre.co.uk/,34032421,E09000013,Shepherd's Bush Green,E05000263,-0.227045431,51.5055343,522924.0633,180109.0466
Cadogan Hall,5 Sloane Terrace, Belgravia,NA,Kensington and Chelsea,https://www.cadoganhall.com/,217078765,E09000020,Royal Hospital,E05009403,-0.159103815,51.49394058,527670.423,178936.4777
Cambridge Theatre,Earlham Street,NA,NA,Camden,http://www.reallyusefultheatres.co.uk/our-theatres/cambridge,5089373,E09000007,Holborn and Covent Garden,E05000138,-0.127988264,51.51402122,529772.7363,181223.8273
Camden People's Theatre,58-60 Hampstead Rd, Kings Cross,NA,Camden,https://www.cptheatre.co.uk/,5158137,E09000007,Regent's Park,E05000142,-0.139972353,51.52689881,528905.0274,182634.3595
Canada Water Theatre,21 Surrey Quays Road,NA,NA,Southwark,http://canadawaterculturespace.org.uk/,10090284129,E09000028,Rotherhithe,E05011112,-0.050768479,51.49832275,535175.8335,179618.3659
Canal CafÃ© Theatre,2 Delamere Terrace,NA,NA,City of Westminster,https://canalcafetheatre.com/,1.00E+11,E09000033,Westbourne,E05000648,-0.186277705,51.5216805,525708.1488,181973.5313
CentrE17,1 Church Hill,NA,NA,Waltham Forest,https://thecentre17.com/,1.00E+11,E09000031,High Street,E05000599,-0.019990926,51.58584388,537048.0903,189406.0849
Cervantes Theatre,Arch 26, Old Union Arches, 229 Union Street,Southwark,http://www.cervantestheatre.com/,10091668523,E09000028,Borough & Bankside,E05011095,-0.103379478,51.5038606,531509.0851,180138.1449
Charing Cross Theatre,The Arches, Villiers St,NA,City of Westminster,http://www.charingcrosstheatre.co.uk/,10033582545,E09000033,St. James's,E05000644,-0.125703378,51.50859876,529946.6721,180625.0164
Chats Palace,Chats Palace Arts Centre, 42â€“44 Brooksbyâ€™s Walk,NA,Hackney,https://chatspalace.com/,1.00E+11,E09000012,Homerton,E05009376,-0.044378545,51.5506371,535463.7894,185446.3615
Chelsea Theatre,7 World's End Place, King's Rd, Chelsea,Kensington and Chelsea,http://www.chelseatheatre.org.uk/,217005389,E09000020,Stanley,E05009405,-0.18123719,51.48215635,526166.9284,177587.8962
Chickenshed Theatre,290 Chase Side, Southgate,NA,Enfield,https://www.chickenshed.org.uk/,207078080,E09000010,Cockfosters,E05000196,-0.146851799,51.644931,528095.2568,195745.0788
Chisenhale Dance Space,64-84 Chisenhale Rd,NA,NA,Tower Hamlets,http://www.chisenhaledancespace.co.uk/,6146768,E09000030,Bow West,E05009320,-0.04006913,51.53413799,535811.6628,183620.0278
Chiswick House,Chiswick House and Gardens, Burlington Lane, Chiswick,Hounslow,http://chiswickhouseandgardens.org.uk/,2.00E+11,E09000018,Chiswick Riverside,E05000349,-0.258922667,51.48660867,520762.3732,177951.7322
Church Street Theatre ,St Mary's Rectory, Stoke Newington Church Street,NA,Hackney,NA,10008310096,E09000012,Clissold,E05009369,-0.086015172,51.5616175,532545.8684,186590.8505
Churchill Theatre,High Street, Bromley,NA,Bromley,https://churchilltheatre.co.uk/,1.00E+11,E09000006,Bromley Town,E05000109,0.012855665,51.40428912,539878.1179,169283.5699
Cockpit Theatre,Gateforth St, Marylebone,NA,City of Westminster,http://thecockpit.org.uk/,1.00E+11,E09000033,Church Street,E05000634,-0.170869276,51.52495745,526767.7359,182364.4777
Collyer Hall Theatre,King's College School, Southside, Wimbledon Common,Merton,https://www.kcs.org.uk/the-kings-community/venue-hire/performance-venues,48065710,E09000024,Village,E05000472,-0.227707485,51.42244793,523101.7858,170870.3194
Compass Theatre,Glebe Ave, Ickenham,NA,Hillingdon,http://www.hillingdontheatres.uk/,1.00E+11,E09000017,Ickenham,E05000333,-0.441442996,51.56134887,507916.2386,185976.0356
Conway Hall,25 Red Lion Square,NA,NA,Camden,https://conwayhall.org.uk/,5048256,E09000007,Holborn and Covent Garden,E05000138,-0.1199192,51.52030279,530314.5368,181936.5705
Courtyard Theatre,40 Pitfield St,NA,NA,Hackney,http://www.thecourtyard.org.uk/,1.00E+11,E09000012,Hoxton West,E05009378,-0.084989787,51.52838844,532713.685,182898.3592
Criterion Theatre,218-223 Piccadilly, St. James's,NA,City of Westminster,https://www.criterion-theatre.co.uk/,10033582954,E09000033,West End,E05000649,-0.135292471,51.51020844,529276.8501,180786.9811
Deaton Theatre,Forest School, College Place,NA,Waltham Forest,https://www.forest.org.uk/senior-school/news-events/facility-hire/,1.00E+11,E09000031,Wood Street,E05000609,0.007758792,51.58609345,538969.198,189486.2311
Dominion Theatre,268-269 Tottenham Court Rd, Fitzrovia,NA,Camden,https://www.nederlander.co.uk/dominion-theatre,5083050,E09000007,Bloomsbury,E05000129,-0.131248013,51.51747184,529536.8169,181601.6865
Donmar Warehouse,41 Earlham St,NA,NA,Camden,https://www.donmarwarehouse.com/,5147687,E09000007,Holborn and Covent Garden,E05000138,-0.127317341,51.51456818,529817.7217,181285.8298
Drayton Arms Theatre,153 Old Brompton Road,NA,NA,Kensington and Chelsea,http://www.thedraytonarmstheatre.co.uk/index.php,217101579,E09000020,Redcliffe,E05009402,-0.185157211,51.49115439,525870.0001,178581.5429
Duchess Theatre,3-5 Catherine St,NA,NA,City of Westminster,https://www.nimaxtheatres.com/theatres/duchess-theatre/,1.00E+11,E09000033,St. James's,E05000644,-0.121341891,51.51270146,530237.5528,181088.9162
Dugdale Arts Centre,39 London Road, Enfield,NA,Enfield,https://www.dugdalecentre.co.uk/,207007119,E09000010,Grange,E05000200,-0.082311783,51.65033225,532543.6622,196460.825
Duke of York's Theatre,St Martin's Ln,NA,NA,City of Westminster,http://www.atgtickets.com/venues/duke-of-yorks/,1.00E+11,E09000033,St. James's,E05000644,-0.128787118,51.51071651,529726.7127,180854.9914
Edward Alderton Theatre,5 Brampton Rd, Bexleyheath,NA,Bexley,http://www.edwardalderton.org/,10011844980,E09000004,Crook Log,E05011223,0.125228844,51.46207495,547505.3792,175928.5066
Embassy Theatre,The Royal Central School of Speech and Drama, 62-64 Eton Ave,NA,Camden,https://www.cssd.ac.uk/content/facilities,5084778,E09000007,Frognal and Fitzjohns,E05000133,-0.175782191,51.5448335,526371.9251,184565.8109
Erith Playhouse,38-40 Erith High St, Erith,NA,Bexley,http://www.playhouse.org.uk/,10011845592,E09000004,Erith,E05011225,0.179388845,51.48217556,551199.9299,178273.7226
Etcetera Theatre,265 Camden High St,NA,NA,Camden,http://www.etceteratheatre.com/,5007472,E09000007,Camden Town with Primrose Hill,E05000130,-0.145554108,51.54065446,528479.1774,184153.8966
Eventim Apollo,45 Queen Caroline Street, Hammersmith,NA,Hammersmith and Fulham,NA,34030384,E09000013,Hammersmith Broadway,E05000256,-0.22701033,51.49099869,522965.6327,178493.0196
Fellowship Inn,Randlesdown Rd,NA,NA,Lewisham,https://www.phoenixch.org.uk/community/fellowship-inn,1.00E+11,E09000023,Bellingham,E05000437,-0.021849412,51.43323126,537378.0765,172435.4838
Finborough Theatre,118 Finborough Road, Kensington,NA,Kensington and Chelsea,http://www.finboroughtheatre.co.uk/,217112560,E09000020,Redcliffe,E05009402,-0.191110467,51.48666973,525469.143,178072.707
Fortune Theatre,Russell St,NA,NA,City of Westminster,https://www.londontheatredirect.com/venue/52/fortune-theatre.aspx,1.00E+11,E09000033,St. James's,E05000644,-0.122321817,51.51375935,530166.5575,181204.7867
Garrick Theatre,2 Charing Cross Rd,NA,NA,City of Westminster,https://www.nimaxtheatres.com/theatres/garrick-theatre/,1.00E+11,E09000033,St. James's,E05000644,-0.129388054,51.51045553,529685.765,180824.9088
Gate Theatre,11 Pembridge Rd, Notting Hill,NA,Kensington and Chelsea,https://www.gatetheatre.co.uk/,217105236,E09000020,Pembridge,E05009400,-0.199262214,51.51003837,524839.4145,180656.8952
Geoffrey Whitworth Theatre,Beech Walk, Crayford,NA,Bexley,http://www.thegwt.org.uk/,1.00E+11,E09000004,Crayford,E05011222,0.188377569,51.45605783,551910.6418,175388.7863
George Wood Theatre ,Goldsmith's College, University of London,NA,Lewisham,NA,1.00E+11,E09000023,New Cross,E05000449,-0.037712479,51.47568861,536149.2429,177126.1357
Gielgud Theatre,Shaftesbury Ave, Soho,NA,City of Westminster,https://www.delfontmackintosh.co.uk/theatres/gielgud-theatre/,10033543105,E09000033,West End,E05000649,-0.134808564,51.51252024,529303.8722,181044.8623
Gillian Lynne Theatre,166 Drury Ln,NA,NA,Camden,http://www.reallyusefultheatres.co.uk/our-theatres/new-london,5157611,E09000007,Holborn and Covent Garden,E05000138,-0.12437866,51.51594211,530017.6577,181443.806
Grange Court Theatre ,Drama Studio London, Grange Court,NA,Ealing,NA,12084359,E09000009,Ealing Common,E05000174,-0.305456884,51.50991716,517472.3671,180467.3793
Greenwich & Lewisham Young People's Theatre,The Tramshed, 51-53 Woolwich New Road,NA,Greenwich,http://www.glypt.co.uk/,1.00E+11,E09000011,Woolwich Riverside,E05000230,0.066393079,51.49001293,543331.8397,178917.5325
Greenwich Theatre,Crooms Hill,NA,NA,Greenwich,https://www.greenwichtheatre.org.uk/,10010200382,E09000011,Greenwich West,E05000222,-0.00924372,51.47998282,538112.7189,177656.9067
Greenwood Theatre,55 Weston St,NA,NA,Southwark,https://www.kcl.ac.uk/greenwood/index.aspx,2.00E+11,E09000028,London Bridge & West Bermondsey,E05011104,-0.087504035,51.50311795,532612.7428,180084.2508
Hackney Arts Centre - EartH (Evolutionary Arts Hackney),11-17 Stoke Newington Road, Stoke Newington,NA,Hackney,https://www.hackneyartscentre.org/,10008300562,E09000012,Shacklewell,E05009382,-0.076999466,51.55140177,533200.5119,185471.4457
Hackney Empire,291 Mare St,NA,NA,Hackney,https://hackneyempire.co.uk/,1.00E+11,E09000012,Hackney Central,E05009372,-0.057085172,51.54657726,534595.0558,184971.5144
Hackney Showroom,Hackney Downs Studios, Amhurst Terrace,NA,Hackney,NA,10091775026,E09000012,Stoke Newington,E05009385,-0.069737442,51.55496024,533693.3917,185880.3177
Half Moon Young Peopleâ€™s Theatre,43 White Horse Road,NA,NA,Tower Hamlets,http://www.halfmoon.org.uk/,6044554,E09000030,Stepney Green,E05009334,-0.042220553,51.51423921,535721.6696,181403.7525
Hampstead Theatre,Eton Avenue, Swiss Cottage,NA,Camden,https://www.hampsteadtheatre.com/,5134828,E09000007,Belsize,E05000128,-0.173976362,51.54456256,526497.8612,184538.812
Hampton Hill Theatre,90 High St, Hampton Hill, Hampton,Richmond upon Thames,http://www.hamptonhilltheatre.org.uk/,10002251133,E09000027,Fulwell and Hampton Hill,E05000518,-0.356547716,51.42763905,514133.1937,171238.7606
Harold Pinter Theatre,Panton St,NA,NA,City of Westminster,http://www.atgtickets.com/venues/harold-pinter-theatre/,10033540343,E09000033,St. James's,E05000644,-0.133275661,51.50983451,529417.8257,180748.9756
Harrow Arts Centre,171 Uxbridge road, Hatch End,NA,Harrow,https://harrowarts.com/,2.00E+11,E09000015,Hatch End,E05000291,-0.364087228,51.60897493,513158.4274,191388.4576
Haverstock School Theatre ,Haverstock School, 24 Haverstock Hill,NA,Camden,NA,5090679,E09000007,Haverstock,E05000136,-0.155023519,51.54480979,527811.028,184599.2826
Hen and Chickens Theatre,109 St Paul's Road,NA,NA,Islington,https://www.thehenandchickenstheatrebar.co.uk/,5300086694,E09000019,Highbury East,E05000372,-0.103133475,51.5465405,531403.1558,184883.7295
Her Majesty's Theatre,Haymarket, St. James's,NA,City of Westminster,http://www.reallyusefultheatres.co.uk/our-theatres/her-majestys,1.00E+11,E09000033,St. James's,E05000644,-0.133612605,51.50863462,529397.8512,180614.9749
Hoxton Hall,130 Hoxton St,NA,NA,Hackney,https://www.hoxtonhall.co.uk/,1.00E+11,E09000012,Hoxton East & Shoreditch,E05009377,-0.081609167,51.53232501,532936.6471,183342.1591
Institute of Contemporary Arts,The Mall, St. James's,NA,City of Westminster,https://www.ica.art/,10033548625,E09000033,St. James's,E05000644,-0.131915742,51.50714179,529519.8098,180452.0065
Intimate Theatre,521 Green Lanes, Palmers Green,NA,Enfield,http://www.smptheatre.co.uk/faqs/the-intimate-theatre/,207035876,E09000010,Winchmore Hill,E05000213,-0.105149434,51.62504172,531037.0743,193607.792
Iris Theatre,St Paul's Church, Bedford Street, Covent Garden,City of Westminster,http://iristheatre.com/,1.00E+11,E09000033,St. James's,E05000644,-0.125333186,51.51209234,529962.4079,181014.0914
Isleworth Public Hall,South Street, Isleworth,NA,Hounslow,http://www.fusion-lifestyle.com/centres/isleworth-public-hall,1.00E+11,E09000018,Isleworth,E05000362,-0.327225027,51.46928924,516065.3976,175915.5011
Jacksons Lane,269A Archway Rd, Highgate,NA,Haringey,https://www.jacksonslane.org.uk/,1.00E+11,E09000014,Highgate,E05000272,-0.147975292,51.57761261,528207.242,188258.6539
Jermyn Street Theatre,16B Jermyn St, St. James's,NA,City of Westminster,http://www.jermynstreettheatre.co.uk/,10033536763,E09000033,West End,E05000649,-0.136510341,51.50967047,529193.8833,180725.0167
Katzpace,Katzenjammers, 24 Southwark Street,NA,Southwark,https://www.katzpace.co.uk/,10093339191,E09000028,Borough & Bankside,E05011095,-0.092624576,51.50540364,532250.8327,180329.0984
Kenneth More Theatre,Oakfield Road, Ilford,NA,Redbridge,https://www.kmtheatre.co.uk/,1.00E+11,E09000026,Ilford Town,E05011246,0.071015406,51.56052556,543430.6606,186765.9127
Kings Head Theatre,115 Upper St, Islington,NA,Islington,http://www.kingsheadtheatre.com/,5300094557,E09000019,St. Mary's,E05000379,-0.104477141,51.53849633,531333.1862,183986.9705
Kings Place,90 York Way, Kings Cross,NA,Camden,https://www.kingsplace.co.uk/,10091871351,E09000007,St. Pancras and Somers Town,E05000143,-0.123577178,51.53474842,530019.6392,183536.1307
KOKO,1A Camden High St, Kings Cross,NA,Camden,http://www.koko.uk.com/,5023741,E09000007,Regent's Park,E05000142,-0.140876459,51.53549102,528818.0578,183588.0544
Laban Theatre,Laban Building, 30 Creekside,NA,Lewisham,https://www.trinitylaban.ac.uk/whats-on/our-venues/laban-theatre,1.00E+11,E09000023,New Cross,E05000449,-0.021681215,51.47906872,537252.0744,177531.8731
Landor Space,70 Landor Rd, Clapham North,NA,Lambeth,https://www.landorspace.com/,1.00E+11,E09000022,Larkhall,E05000425,-0.127632228,51.46618085,529933.5213,175905.6084
Lantern Arts Centre,Tolverne Road, Raynes Park,NA,Merton,https://www.lanternarts.org/,48111953,E09000024,Raynes Park,E05000469,-0.231459924,51.41189908,522869.2513,169691.2239
Lauderdale House,Waterlow Park, Highgate Hill,NA,Camden,http://lauderdalehouse.org.uk/,5132343,E09000007,Highgate,E05000137,-0.14491124,51.57016551,528440.5108,187436.0738
Leicester Square Theatre,6 Leicester Pl,NA,NA,City of Westminster,http://www.leicestersquaretheatre.com/,1.00E+11,E09000033,St. James's,E05000644,-0.131679857,51.51185035,529522.8149,180975.9231
Lion and Unicorn Theatre,42-44 Gaisford St, Kentish Town,NA,Camden,http://www.lionandunicorntheatre.co.uk/,5082943,E09000007,Kentish Town,E05000139,-0.141422724,51.54861882,528743.1033,185046.6569
London Coliseum ,St Martin's Ln,NA,NA,City of Westminster,https://www.eno.org/,1.00E+11,E09000033,St. James's,E05000644,-0.127877202,51.51042255,529790.673,180823.9243
London Palladium,Argyll St, Soho,NA,City of Westminster,http://london-palladium.co.uk/,10033529083,E09000033,West End,E05000649,-0.141898918,51.51497989,528805.0644,181305.8102
London Theatre,443 New Cross Rd, New Cross,NA,Lewisham,http://www.thelondontheatre.com/,10091838199,E09000023,New Cross,E05000449,-0.03180711,51.47634389,536557.271,177209.9901
London Theatre Workshop,88 Gracechurch Street Leadenhall Market,NA,NA,City and County of the City of London,http://londontheatreworkshop.co.uk/,2.00E+11,E09000001,Cornhill,E05009301,-0.085764417,51.51334897,532703.7,181224.8817
LSMT,London School of Musical Theatre, 83 Borough Rd,NA,Southwark,https://www.lsmt.co.uk/,2.00E+11,E09000028,St. George's,E05011114,-0.100289685,51.49951306,531736.0112,179660.3481
Lyric Hammersmith,Lyric Square, King St,NA,Hammersmith and Fulham,https://lyric.co.uk/,34027053,E09000013,Hammersmith Broadway,E05000256,-0.227877123,51.49375939,522898.0447,178798.5002
Lyric Theatre,29 Shaftesbury Ave, Soho,NA,City of Westminster,https://www.nimaxtheatres.com/theatres/lyric-theatre/,1.00E+11,E09000033,West End,E05000649,-0.135400491,51.51178329,529264.8965,180961.8823
May Fair Theatre ,The May Fair Hotel, Stratton Street, Mayfair,City of Westminster,http://www.themayfairhotel.co.uk/en/may-fair-theatre.html,10033549456,E09000033,West End,E05000649,-0.14548366,51.50802526,528575.9884,180526.2824
Menier Chocolate Factory,53 Southwark St,NA,NA,Southwark,https://www.menierchocolatefactory.com/,2.00E+11,E09000028,Borough & Bankside,E05011095,-0.096077229,51.5051726,532011.9504,180297.1728
Merton Arts Space,Compton Rd, Wimbledon,NA,Merton,https://arena.yourlondonlibrary.net/web/merton/merton-arts-space-wimbledon,48017144,E09000024,Hillside,E05000462,-0.208465413,51.42374316,524435.7546,171046.864
Millfield Theatre,Silver St, Edmonton,NA,Enfield,https://www.millfieldtheatre.co.uk/,207016763,E09000010,Haselbury,E05000201,-0.079904458,51.61670068,532808.3284,192726.0205
Milton Court,1 Milton Street,NA,NA,City and County of the City of London,https://www.barbican.org.uk/hire/venue-hire/venues/milton-court-concert-hall,95511391,E09000001,Cripplegate,E05009302,-0.092682898,51.52054719,532202.9121,182012.6456
"Mirth, Marvel and Maud",186 Hoe St, Walthamstow,NA,Waltham Forest,http://mirthmarvelandmaud.com/,1.00E+11,E09000031,William Morris,E05000608,-0.022018906,51.58700167,536904.1432,189530.9982
National Centre for Circus Arts ,Coronet Street,NA,NA,Hackney,NA,1.00E+11,E09000012,Hoxton West,E05009378,-0.083867984,51.52803008,532792.5217,182860.5523
National Theatre,Upper Ground, Lambeth,NA,Lambeth,NA,2.00E+11,E09000022,Bishop's,E05000416,-0.115668338,51.50737705,530646.3699,180507.0709
Network Theatre,246A Lower Rd, Waterloo,NA,Lambeth,https://networktheatre.org/,10008787031,E09000022,Bishop's,E05000416,-0.113888522,51.50274612,530783.1167,179995.3865
New Diorama Theatre,15-16 Triton St, London ,NA,Camden,http://www.newdiorama.com/,5155688,E09000007,Regent's Park,E05000142,-0.143924929,51.52541488,528635.1032,182462.4102
New Wimbledon Theatre,93 The Broadway, Wimbledon,NA,Merton,http://www.atgtickets.com/venues/new-wimbledon-theatre/,48008413,E09000024,Trinity,E05000471,-0.202895753,51.41980863,524833.6159,170618.9107
NoÃ«l Coward Theatre,85-88 St Martin's Ln,NA,NA,City of Westminster,http://www.noelcowardtheatre.co.uk/,1.00E+11,E09000033,St. James's,E05000644,-0.128820128,51.51131046,529722.7348,180920.9676
Normansfield Theatre,The Langdon Down Centre, Normansfield, 2A Langdon Park,Richmond upon Thames,https://langdondowncentre.org.uk/normansfield-theatre/,10070711098,E09000027,Hampton Wick,E05000522,-0.315912836,51.41950034,516978.1575,170398.0234
Novello Theatre,Aldwych, London,NA,City of Westminster,http://www.novellotheatrelondon.info/,10033615106,E09000033,St. James's,E05000644,-0.121040927,51.51301144,530257.5462,181123.9157
Nursery Theatre,2  Finsbury Avenue ,NA,NA,Islington,http://thenurserytheatre.com/theatre/,1.00E+11,E09000019,Bunhill,E05000367,-0.086814449,51.51992929,532611.7364,181954.5716
Old Red Lion,418 St John St, Clerkenwell,NA,Islington,http://www.oldredliontheatre.co.uk/,5300085363,E09000019,Barnsbury,E05000366,-0.107460709,51.53191794,531145.2481,183250.2303
Old Sorting Office Barnes,49 Station Rd,NA,NA,Richmond upon Thames,http://www.osoarts.org.uk/,,E09000027,Mortlake and Barnes Common,E05000525,-0.248428132,51.47279383,521527.5837,176433.1621
Omnibus Theatre,1 Clapham Common North Side,NA,NA,Lambeth,https://omnibus-clapham.org/,1.00E+11,E09000022,Clapham Town,E05000419,-0.144545405,51.46366993,528766.1222,175596.5424
Opera Holland Park Theatre,Ilchester Place, Kensington,NA,Kensington and Chelsea,http://www.operahollandpark.com/,217038848,E09000020,Holland,E05009397,-0.204449343,51.50115652,524503.7744,179660.5565
Orange Tree Theatre,1 Clarence St, Richmond,NA,Richmond upon Thames,https://www.orangetreetheatre.co.uk/,1.00E+11,E09000027,North Richmond,E05000526,-0.303460207,51.46489827,517726.9134,175465.285
Ovalhouse,52-54 Kennington Oval, London,NA,Lambeth,http://www.ovalhouse.com/,2.00E+11,E09000022,Oval,E05000426,-0.118752358,51.48427322,530498.4218,177932.8933
Palace Theatre,Shaftesbury Ave, Soho,NA,City of Westminster,https://www.nimaxtheatres.com/theatres/palace-theatre/,10033553103,E09000033,West End,E05000649,-0.131233936,51.5135962,529548.7943,181170.8166
Park Theatre,Clifton Terrace, Finsbury Park,NA,Islington,https://www.parktheatre.co.uk/,10090266645,E09000019,Finsbury Park,E05000371,-0.110020818,51.56617243,530869.2961,187054.0431
Paul Robeson Theatre (The Arts Centre Hounslow),Treaty Centre, High St, Hounslow,Hounslow,http://www.hounslowartscentre.co.uk/,1.00E+11,E09000018,Hounslow Central,E05000358,-0.364605576,51.46864496,513471.3419,175785.2269
Peacock Theatre,Portugal St,NA,NA,Camden,http://peacocktheatre.com/,1.00E+11,E09000007,Holborn and Covent Garden,E05000138,-0.119599115,51.51513727,530351.4934,181362.8361
Pentameters Theatre,The Horseshoe, 28 Heath St,NA,Camden,http://www.pentameters.co.uk/,5162760,E09000007,Frognal and Fitzjohns,E05000133,-0.180041195,51.5562823,526045.0008,185831.3427
Phoenix Theatre,110 Charing Cross Road,NA,NA,City of Westminster,NA,5037592,E09000033,West End,E05000649,-0.131318258,51.51517556,529538.4624,181346.261
Piccadilly Theatre,16 Denman St, Soho,NA,City of Westminster,https://www.piccadillytheatre.org/,1.00E+11,E09000033,West End,E05000649,-0.136980332,51.51156529,529155.9161,180934.8521
Platform,Hornsey Road Baths, 2 Tiltman Place,NA,Islington,NA,10012794343,E09000019,Finsbury Park,E05000371,-0.11716881,51.5617735,530386.6272,186552.2044
Platform Theatre,Central Saint Martin's, 1 Handyside St, Kings Cross,Camden,NA,5167112,E09000007,St. Pancras and Somers Town,E05000143,-0.125196079,51.53743115,529899.7464,183831.5192
Playhouse theatre,Northumberland Ave,NA,NA,City of Westminster,https://www.playhousetheatrelondon.com/,1.00E+11,E09000033,St. James's,E05000644,-0.125288396,51.50747687,529978.6566,180501.0225
Pleasance Theatre,Carpenters Mews, North Rd,NA,Islington,https://www.pleasance.co.uk/,10012788835,E09000019,Holloway,E05000375,-0.123196566,51.5492461,530004.6798,185148.6707
Polka Theatre,240 The Broadway, Wimbledon,NA,Merton,https://polkatheatre.com/,48008566,E09000024,Trinity,E05000471,-0.196078435,51.42019874,525306.4374,170673.9341
Prince Edward Theatre,Old Compton St, Soho,NA,City of Westminster,http://www.princeedwardtheatre.co.uk/,1.00E+11,E09000033,West End,E05000649,-0.132532821,51.51426411,529456.7969,181242.7746
Prince of Wales Theatre,Coventry St,NA,NA,City of Westminster,https://www.delfontmackintosh.co.uk/theatres/prince-of-wales-theatre/,1.00E+11,E09000033,St. James's,E05000644,-0.133377664,51.51051045,529408.833,180823.9457
Print Room at the Coronet,103 Notting Hill Gate, Kensington,NA,Kensington and Chelsea,https://www.the-print-room.org/,217059398,E09000020,Pembridge,E05009400,-0.200485076,51.50899645,524757.4254,180538.9656
Puppet Theatre Barge,Blomfield Road (opposite 35),NA,NA,City of Westminster,http://www.puppetbarge.com/Controllers/homepage.php,10033556397,E09000033,Little Venice,E05000639,-0.18632704,51.52224162,525703.1811,182035.8331
Putney Arts Theatre,Ravenna Rd, Putney,NA,Wandsworth,http://www.putneyartstheatre.org.uk/,1.00E+11,E09000032,East Putney,E05000613,-0.221703171,51.46102652,523414.9482,175169.6224
QEH Southbank Centre,Belvedere Rd, Lambeth,NA,Lambeth,https://www.southbankcentre.co.uk/venues/queen-elizabeth-hall,10090198178,E09000022,Bishop's,E05000416,-0.117552648,51.50717504,530516.2162,180481.2455
Queen's Theatre ,51 Shaftesbury Ave, Soho,NA,City of Westminster,http://www.queenstheatre.co.uk/,1.00E+11,E09000033,West End,E05000649,-0.134506592,51.51251524,529324.8344,181044.8412
Queen's Theatre Hornchurch ,Billet Ln, Hornchurch,NA,Havering,http://www.queens-theatre.co.uk/,1.00E+11,E09000016,St. Andrew's,E05000320,0.217790544,51.56571994,553583.8346,187641.7935
Ralph Richardson Memorial Studios ,Mountview Theatre School, 104 Crouch Hill,NA,Haringey,NA,1.00E+11,E09000014,Crouch End,E05000269,-0.123488188,51.57658777,529906.4268,188187.9816
Redbridge Drama Centre,Churchfields, South Woodford,NA,Redbridge,http://www.redbridgedramacentre.co.uk/,1.00E+11,E09000026,Churchfields,E05011238,0.025399644,51.5987895,540151.7867,190931.4148
Regents Park Open Air Theatre,Inner Cir,NA,NA,City of Westminster,https://openairtheatre.com/,10091898189,E09000033,Regent's Park,E05000643,-0.156039804,51.52880735,527785.4126,182818.336
Rich Mix,35-47 Bethnal Green Rd, London,NA,Tower Hamlets,https://www.richmix.org.uk/,6192962,E09000030,Weavers,E05009335,-0.075412607,51.52474282,533388.4921,182510.4602
Richmond Theatre,Little Green, Richmond,NA,Richmond upon Thames,http://www.atgtickets.com/venues/richmond-theatre/,10002264543,E09000027,South Richmond,E05000528,-0.305388877,51.46257947,517598.9476,175204.3743
Riverside Studios,101 Queen Caroline Street, Hammersmith,NA,Hammersmith and Fulham,http://www.riversidestudios.co.uk/,34153945,E09000013,North End,E05000258,-0.208193931,51.48990812,524274.5461,178403.5802
Rose Lipman Building,43 De Beauvoir Rd,NA,NA,Hackney,http://www.themillcoproject.co.uk/spaces/the-rose-lipman-building/,10008241945,E09000012,De Beauvoir,E05009371,-0.083199392,51.5394745,532805.5555,184134.1357
Rose Theatre,24-26 High St, Kingston upon Thames,NA,Richmond upon Thames,https://www.rosetheatrekingston.org/,128029778,E09000027,Hampton Wick,E05000522,-0.309291192,51.40877768,517465.9575,169216.4947
Rose Theatre,Lamorbey House, Burnt Oak Lane,NA,Bexley,https://www.bruford.ac.uk/,10011845091,E09000004,Blackfen & Lamorbey,E05011220,0.104842345,51.43979204,546160.8162,173410.3254
Rosemary Branch Theatre,2 Shepperton Rd,NA,NA,Islington,http://www.rosemarybranchtheatre.co.uk/,5300082551,E09000019,Canonbury,E05000369,-0.088545651,51.53813039,532438.8037,183975.0092
Roundhouse,Chalk Farm Rd, Camden Town,NA,Camden,http://www.roundhouse.org.uk/,5109516,E09000007,Camden Town with Primrose Hill,E05000130,-0.15289144,51.54354905,527962.3672,184462.8447
Royal Court Theatre,Sloane Square, Chelsea,NA,Kensington and Chelsea,https://royalcourttheatre.com/,217078033,E09000020,Royal Hospital,E05009403,-0.157998904,51.49312267,527749.3913,178847.4727
Royal Opera House,Bow St,NA,NA,City of Westminster,http://www.roh.org.uk/,10033547198,E09000033,St. James's,E05000644,-0.124260621,51.51355733,530032.6399,181178.8759
Ryan Theatre,5 Yew Walk, Harrow,NA,Harrow,https://www.tagvenue.com/rooms/middlesex/1654/harrow-school/ryan-theatre,1.00E+11,E09000015,Harrow on the Hill,E05000289,-0.341300733,51.57331899,514825.7789,187459.5599
Sadler's Wells Theatre,Rosebery Ave, Clerkenwell,NA,Islington,https://www.sadlerswells.com/,5300080047,E09000019,Clerkenwell,E05000370,-0.107874625,51.52993712,531122.2412,183029.2599
Sainsbury Theatre,155 Talgarth Rd,NA,NA,Hammersmith and Fulham,https://www.lamda.ac.uk/hire-our-spaces,34160370,E09000013,Avonmore and Brook Green,E05000252,-0.215523255,51.49106288,523762.7152,178519.5369
Sam Wanamaker Playhouse,21 New Globe Walk,NA,NA,Southwark,http://www.shakespearesglobe.com/theatre/whats-on/sam-wanamaker-playhouse,10090750983,E09000028,Borough & Bankside,E05011095,-0.098181097,51.50862325,531856.0121,180677.0191
Sarah Siddons Theatre,City of Westminster College, Paddington Green Campus,NA,City of Westminster,https://www.cwc.ac.uk/private-hire/sarah-siddons-theatre,10033614767,E09000033,Little Venice,E05000639,-0.176027204,51.5213937,526419.8942,181959.3231
Savoy Theatre,Savoy Court, Strand,NA,City of Westminster,http://www.atg.co.uk/venues/london/savoy-theatre/,1.00E+11,E09000033,St. James's,E05000644,-0.122476737,51.51067863,530164.5961,180861.9959
Shaftesbury Theatre,210 Shaftesbury Ave,NA,NA,Camden,http://www.shaftesburytheatre.com/,5038488,E09000007,Holborn and Covent Garden,E05000138,-0.127702349,51.51678597,529784.7073,181531.7204
Shakespeares Globe,21 New Globe Walk,NA,NA,Southwark,http://www.shakespearesglobe.com/,2.00E+11,E09000028,Borough & Bankside,E05011095,-0.098181097,51.50862325,531856.0121,180677.0191
Shaw Theatre,100-110 Euston Rd, Kings Cross,NA,Camden,https://www.shaw-theatre.com/,5083194,E09000007,St. Pancras and Somers Town,E05000143,-0.129717428,51.5291548,529609.7882,182903.3199
Shepherds Bush Empire,Shepherd's Bush Green,NA,NA,Hammersmith and Fulham,https://academymusicgroup.com/o2shepherdsbushempire/,34030760,E09000013,Shepherd's Bush Green,E05000263,-0.226070492,51.50393746,522996.009,179933.1487
Shoreditch Town Hall,380 Old St,NA,NA,Hackney,https://shoreditchtownhall.com/,10008305130,E09000012,Hoxton East & Shoreditch,E05009377,-0.081289113,51.52759052,532972.6411,182816.3667
Soho Theatre,21 Dean Street,NA,NA,City of Westminster,https://sohotheatre.com/,10033554562,E09000033,West End,E05000649,-0.134513511,51.51488794,529317.6319,181308.6261
South London Theatre,The Old Fire Station, 2A Norwood High Street,NA,Croydon,http://www.southlondontheatre.co.uk/,1.00E+11,E09000008,South Norwood,E05011485,-0.077179031,51.4009191,533627.5091,168740.7763
Southwark Playhouse,77-85 Newington Causeway, London,NA,Southwark,http://southwarkplayhouse.co.uk/,2.00E+11,E09000028,St. George's,E05011114,-0.099781703,51.49821019,531775.0206,179516.4115
"St Johns, Waterloo",73 Waterloo Rd, Lambeth,NA,Lambeth,NA,10090199534,E09000022,Bishop's,E05000416,-0.113579398,51.50499811,530798.1137,180246.3159
St Martin's Theatre,West St,NA,NA,City of Westminster,https://www.the-mousetrap.co.uk/,5090739,E09000033,West End,E05000649,-0.129215629,51.51335016,529689.5022,181147.0405
St Mary's University ,Waldegrave Road, Twickenham,NA,Richmond upon Thames,NA,1.00E+11,E09000027,South Twickenham,E05000529,-0.333044849,51.43617234,515745.0738,172224.3601
Stockwell Playhouse,208 Wandsworth Road,NA,NA,Lambeth,http://www.stockwellph.com/,10023851231,E09000022,Stockwell,E05000429,-0.132823448,51.47648579,529543.7901,177042.085
Stratford Circus Arts Centre,Theatre Square, Stratford,NA,Newham,https://stratford-circus.com/,10008996899,E09000025,Stratford and New Town,E05000492,-0.000157784,51.54344506,538550.686,184729.7261
Streatham Space Project,Sternhold Avenue,NA,NA,Lambeth,https://www.streathamspaceproject.co.uk/,1.00E+11,E09000022,Streatham Hill,E05000430,-0.128474733,51.43917354,529951.7867,172901.4731
Sydenham Centre,44a Sydenham Road,NA,NA,Lewisham,https://www.lewisham.gov.uk/inmyarea/Pages/venue-detail.aspx?directoryid=5081,1.00E+11,E09000023,Sydenham,E05000452,-0.053283626,51.42641139,535213.873,171618.7378
Tabard Theatre,2 Bath Rd, Chiswick,NA,Hounslow,http://tabardtheatre.co.uk/,10091854897,E09000018,Chiswick Homefields,E05000348,-0.255056571,51.49643256,521004.6884,179050.3647
Tara Theatre,356 Garratt Ln,NA,NA,Wandsworth,https://www.tara-arts.com/,121011012,E09000032,Earlsfield,E05000612,-0.189439175,51.44228795,525707.2226,173141.2063
Teatr Polski,Polish Centre, 238-46 King Street,NA,Hammersmith and Fulham,http://www.posk.org/c5/en/home/,34160956,E09000013,Ravenscourt Park,E05000261,-0.239015056,51.49403514,522124.3277,178810.4934
The Albany,Douglas Way,NA,NA,Lewisham,https://www.thealbany.org.uk/,1.00E+11,E09000023,New Cross,E05000449,-0.029025428,51.47839273,536744.2584,177442.9702
The Beck Theatre,Grange Rd, Hayes,NA,Hillingdon,https://becktheatre.org.uk/,10003001360,E09000017,Townfield,E05000339,-0.423374127,51.52155421,509263.7119,181578.3637
The Bhavan Centre,4A Castletown Rd, Hammersmith,NA,Hammersmith and Fulham,http://www.bhavan.net/,34140084,E09000013,North End,E05000258,-0.208193931,51.48990812,524274.5461,178403.5802
The Bread & Roses Theatre,68 Clapham Manor St,NA,NA,Lambeth,https://www.breadandrosestheatre.co.uk/,1.00E+11,E09000022,Clapham Town,E05000419,-0.138482219,51.46690969,529178.0181,175967.424
The Bridge Theatre,3 Potters Fields Park,NA,NA,Southwark,https://bridgetheatre.co.uk/,10090749570,E09000028,London Bridge & West Bermondsey,E05011104,-0.078830885,51.50414492,533211.5332,180214.1894
The Broadway,11-13 Broadway, Barking,NA,Barking and Dagenham,https://www.thebroadwaybarking.com/,100058301,E09000002,Abbey,E05000026,0.075702276,51.53639032,543831.6366,184091.8724
The Brockley Jack Theatre,410 Brockley Rd,NA,NA,Lewisham,http://www.brockleyjack.co.uk/,1.00E+11,E09000023,Crofton Park,E05000441,-0.040139485,51.45394088,536045.4658,174703.7483
The Bull Theatre,68 High St, Barnet,NA,Barnet,https://www.thebulltheatre.com/,200148795,E09000003,High Barnet,E05000056,-0.200963858,51.6536034,524328.565,196615.722
The Calder Bookshop & Theatre,51 The Cut,NA,NA,Lambeth,http://calderbookshop.com/,2.00E+11,E09000022,Bishop's,E05000416,-0.108319985,51.50354554,531167.1977,180094.2417
The CLF Art CafÃ©,Block A, Bussey Building, 133 Rye Lane,Southwark,https://www.clfartcafe.org/theatre,10090750261,E09000028,Rye Lane,E05011113,-0.069824735,51.47042121,533935.2729,176481.2688
The Colour House Theatre,Merton Abbey Mills, Watermill Way,NA,Merton,http://www.colourhousetheatre.co.uk/,48112460,E09000024,Abbey,E05000455,-0.184766213,51.41351461,526111.1897,169950.2271
the cornerHOUSE Community Arts Centre,116 Douglas Rd, Surbiton,NA,Kingston upon Thames,http://www.thech.org/,1.00E+11,E09000021,Surbiton Hill,E05000413,-0.295613257,51.38140612,518487.8435,166195.3132
The Half Moon,10 Half Moon Lane, Herne Hill,NA,Southwark,http://www.halfmoonhernehill.co.uk/,6044554,E09000028,Dulwich Village,E05011100,-0.097891172,51.45339185,532035.7117,174536.9721
The Hope Theatre,207 Upper Street,NA,NA,Islington,http://www.thehopetheatre.com/,5300094879,E09000019,St. Mary's,E05000379,-0.105095213,51.54408176,531274.2505,184606.845
The Kiln,269 Kilburn High Rd, Kilburn,NA,Brent,https://kilntheatre.com/,202124574,E09000005,Kilburn,E05000094,-0.201993562,51.54423111,524556.5359,184453.8332
The Little Angel Theatre,14 Dagmar Passage, Islington,NA,Islington,https://littleangeltheatre.com/,5300026580,E09000019,St. Mary's,E05000379,-0.102877318,51.53952325,531441.1442,184104.0171
The Lyceum Theatre,21 Wellington St,NA,NA,City of Westminster,https://www.thelyceumtheatre.com/,10033572107,E09000033,St. James's,E05000644,-0.121719838,51.51193352,530213.5251,181002.8636
The Mary Wallace Theatre,The Embankment, Twickenham,NA,Richmond upon Thames,http://www.richmondshakespeare.org.uk/,1.00E+11,E09000027,Twickenham Riverside,E05000531,-0.327664261,51.44699383,516091.5153,173435.9927
The MCT,Alleyn's School, Townley Road,NA,Southwark,https://mct.alleyns.org.uk/,2.00E+11,E09000028,Goose Green,E05011103,-0.083576692,51.45529878,533024.4403,174774.8996
"The Old Library, Theatre Deli",39 Wells Way,NA,NA,Southwark,https://www.theatredeli.co.uk/about-the-old-library,2.00E+11,E09000028,Faraday,E05011102,-0.087174361,51.48312388,532693.712,177861.9293
The Old Vic,The Cut, Lambeth,NA,Lambeth,https://www.oldvictheatre.com/,2.00E+11,E09000022,Bishop's,E05000416,-0.110626736,51.5024496,531010.2894,179968.2596
The Other Palace,12 Palace St, Westminster,NA,City of Westminster,https://www.theotherpalace.co.uk/,10033568019,E09000033,St. James's,E05000644,-0.143692437,51.49923634,528725.0367,179552.2795
The Place,17 Duke's Rd, Bloomsbury,NA,Camden,https://www.theplace.org.uk/,10091861254,E09000007,St. Pancras and Somers Town,E05000143,-0.130565311,51.52781091,529554.8082,182752.4011
The Playground Theatre,8 Latimer Industrial Estate, Latimer Rd,NA,Hammersmith and Fulham,http://theplaygroundtheatre.london/,217052352,E09000013,College Park and Old Oak,E05000253,-0.226001748,51.51831412,522962.0458,181531.6832
The Questors Theatre,12 Mattock Ln,NA,NA,Ealing,http://www.questors.org.uk/,12084402,E09000009,Walpole,E05000192,-0.31124231,51.51221678,517065.1005,180713.7697
The Red Hedgehog,255 - 257 Archway Road, Highgate,NA,Haringey,http://www.theredhedgehog.co.uk/,1.00E+11,E09000014,Highgate,E05000272,-0.145578588,51.57665107,528375.9791,188155.9611
The Rose Playhouse,56 Park St,NA,NA,Southwark,http://www.roseplayhouse.org.uk/,2.00E+11,E09000028,Borough & Bankside,E05011095,-0.09786911,51.50781833,531879.9824,180588.0906
The Royal Vauxhall Tavern,372 Kennington Lane, Vauxhall,NA,Lambeth,http://www.vauxhalltavern.com/,1.00E+11,E09000022,Prince's,E05000427,-0.121405222,51.4870039,530306.4819,178231.7571
The Scoop,Queen's Walk,NA,NA,Lambeth,https://www.visitlondon.com/things-to-do/place/3720745-scoop,10013532078,E09000022,Bishop's,E05000416,-0.120831813,51.50417225,530297.2801,180141.5474
The Space,269 Westferry Rd, Isle of Dogs,NA,Tower Hamlets,https://space.org.uk/,6060149,E09000030,Island Gardens,E05009324,-0.0258169,51.49268043,536924.181,179037.4537
The Tabernacle W11,34-35 Powis Square,NA,NA,Kensington and Chelsea,https://www.tabernaclew11.com/,217070132,E09000020,Colville,E05009392,-0.203143963,51.51721063,524550.5433,181447.6948
The Vaults,Leake Street, Lamebth,NA,Lambeth,https://www.thevaults.london/,10091121720,E09000022,Bishop's,E05000416,-0.117556057,51.50247048,530529.4294,179958.1872
The Yaa Centre,1 Chippenham Mews,NA,NA,City of Westminster,NA,1.00E+11,E09000033,Harrow Road,E05000635,-0.196666428,51.52406349,524981.083,182220.6612
The Yard Theatre,Unit 2A, Queenâ€™s Yard,White Post Lane,Tower Hamlets,https://theyardtheatre.co.uk/,6077552,E09000030,Bow East,E05009319,-0.024359022,51.54300956,536874.3156,184635.6854
Theatre 62,Wickham Theatre Centre, Corkscrew Hill, West Wickham,Bromley,https://theatre62.wordpress.com/,1.00E+11,E09000006,West Wickham,E05000127,-0.011943755,51.37342259,538246.9306,165804.992
Theatre N16 ,5 Ashley Road,NA,NA,Haringey,https://www.theatren16.co.uk/,10003979036,E09000014,Tottenham Hale,E05000281,-0.062745649,51.59065971,534072.6804,189862.145
Theatre Peckham,221 Havil St, Camberwell,NA,Southwark,https://www.theatrepeckham.co.uk/,10000811503,E09000028,St. Giles,E05011115,-0.085306286,51.47751843,532839.6913,177242.1131
Theatre Royal Drury Lane ,Catherine St,NA,NA,City of Westminster,http://www.reallyusefultheatres.co.uk/our-theatres/theatre-royal,10033555899,E09000033,St. James's,E05000644,-0.121947845,51.51338539,530193.5664,181163.8758
Theatre Royal Haymarket,18 Suffolk St,NA,NA,City of Westminster,http://www.trh.co.uk/,1.00E+11,E09000033,St. James's,E05000644,-0.132848692,51.50934257,529448.8417,180695.0369
Theatre Royal Stratford East,Gerry Raffles Square,NA,NA,Newham,http://www.stratfordeast.com/,10009003230,E09000025,Stratford and New Town,E05000492,-0.000637702,51.5430221,538518.7031,184681.7935
Theatre Utopia,1 Matthews Yard, Croydon,NA,Croydon,http://www.matthewsyard.com/,10090382144,E09000008,Fairfield,E05011468,-0.102698376,51.37268811,531934.1402,165555.9419
Theatre503,503 Battersea Park Rd,NA,NA,Wandsworth,https://theatre503.com/,10091845630,E09000032,St. Mary's Park,E05000622,-0.167282835,51.47244361,527162.6666,176532.2114
Theatro Technis,26 Crowndale Rd, Kings Cross,NA,Camden,http://www.theatrotechnis.com/,5061419,E09000007,St. Pancras and Somers Town,E05000143,-0.135763985,51.53604907,529170.9562,183659.1241
Tower Theatre ,16 Northwold Road,NA,NA,Hackney,http://www.towertheatre.org.uk/relo.htm,1.00E+11,E09000012,Stoke Newington,E05009385,-0.073542349,51.56332345,533405.1683,186803.1868
Toynbee Studios,28 Commercial St,NA,NA,Tower Hamlets,https://www.artsadmin.co.uk/toynbee-studios,6183707,E09000030,Spitalfields & Banglatown,E05009333,-0.073923593,51.51700362,533514.4024,181652.743
Trafalgar Studios,14 Whitehall, Westminster,NA,City of Westminster,http://trafalgarentertainment.com/about-us/trafalgar-studios/,1.00E+11,E09000033,St. James's,E05000644,-0.129113012,51.50697186,529714.7442,180438.0819
Tristan Bates Theatre,1A Tower St, London,NA,City of Westminster,https://www.tristanbatestheatre.co.uk/,5077305,E09000033,West End,E05000649,-0.129684093,51.51379621,529655.7379,181195.8015
Troubadour Wembley Park Theatre,Fulton Road,,,,,,,,,-0.281788454,51.56085054,518981.3968,186168.5884
Unicorn Theatre,147 Tooley St,NA,NA,Southwark,https://www.unicorntheatre.com/,10009804074,E09000028,London Bridge & West Bermondsey,E05011104,-0.082889513,51.50458886,532928.6382,180256.1641
Union Chapel,19b Compton Terrace,NA,NA,Islington,http://www.unionchapel.org.uk/,5300023057,E09000019,St. Mary's,E05000379,-0.104331307,51.54477969,531325.196,184685.8119
Union Theatre,Old Union Arches, 229 Union St,NA,Southwark,http://www.uniontheatre.biz/,2.00E+11,E09000028,Borough & Bankside,E05011095,-0.103379478,51.5038606,531509.0851,180138.1449
Upstairs at The Gatehouse,Highgate Village,NA,NA,Haringey,http://www.upstairsatthegatehouse.com/,5166442,E09000014,Highgate,E05000272,-0.151935655,51.57246809,527947.3612,187679.7417
Vaudeville Theatre,404 Strand,NA,NA,City of Westminster,https://www.nimaxtheatres.com/theatres/vaudeville-theatre/,10033544051,E09000033,St. James's,E05000644,-0.124083583,51.51085658,530052.616,180878.9213
Victoria Palace,Victoria St, Westminster,NA,City of Westminster,http://www.victoriapalacetheatre.co.uk/,2.00E+11,E09000033,St. James's,E05000644,-0.143949372,51.49751449,528712.0611,179360.393
Walthamstow Assembly Hall,Town Hall, Forest Rd, Walthamstow,Waltham Forest,http://www.forestvenues.london/venues/walthamstow-assembly-hall-wah17,2.00E+11,E09000031,Chapel End,E05000592,-0.01509178,51.59167049,537369.7901,190063.057
Waterloo East Theatre,Brad St, Lambeth,NA,Lambeth,https://www.waterlooeast.co.uk/,10091908867,E09000022,Bishop's,E05000416,-0.111517693,51.50460339,530942.292,180206.1208
Watermans Art Centre,40 High St, Brentford,NA,Hounslow,https://www.watermans.org.uk/,1.00E+11,E09000018,Brentford,E05000347,-0.299628859,51.48627849,517937.7376,177848.5657
White Bear Theatre,138 Kennington Park Rd, Kennington,NA,Lambeth,https://www.whitebeartheatre.co.uk/,1.00E+11,E09000022,Prince's,E05000427,-0.109658371,51.48722009,531121.2081,178276.788
Wiltons Music Hall,1 Graces Alley, Whitechapel,NA,Tower Hamlets,https://www.wiltons.org.uk/,6006845,E09000030,Whitechapel,E05009336,-0.068550982,51.51112423,533904.3177,181008.8995
Winston Churchill Theatre,Manor Farm, Pinn Way, Ruislip,Hillingdon,http://www.hillingdontheatres.uk/index.php/hire/our-spaces/wct/,1.00E+11,E09000017,Eastcote and East Ruislip,E05000329,-0.430318955,51.57944316,508643.9235,188004.3183
Winterflood Theatre,City of London School, Queen Victoria Street,NA,City and County of the City of London,https://www.cityoflondonschool.org.uk/school-life/drama/winterflood-theatre,1.00E+11,E09000001,Castle Baynard,E05009297,-0.100945095,51.51153824,531655.8462,180996.1271
Wyndham's Theatre,Charing Cross Rd,NA,NA,City of Westminster,https://www.delfontmackintosh.co.uk/theatres/wyndhams-theatre/,1.00E+11,E09000033,St. James's,E05000644,-0.129818035,51.51156841,529652.7743,180947.8772
Ye Olde Rose and Crown,53 Hoe Street, Walthamstow,NA,Waltham Forest,http://www.yeolderoseandcrowntheatrepub.co.uk/,2.00E+11,E09000031,William Morris,E05000608,-0.021954959,51.58748661,536907.1109,189585.0299
Young Actors Theatre,70-72 Barnsbury Road,NA,NA,Islington,NA,5300006610,E09000019,Barnsbury,E05000366,-0.112533377,51.5366392,530779.9611,183766.0541
Young Vic,66 The Cut, Waterloo,NA,Lambeth,https://www.youngvic.org/,1.00E+11,E09000022,Bishop's,E05000416,-0.108874737,51.50378941,531128.006,180120.3598
Immersive LDN (UNIT HQ),1-8 Davies Mews,,NA,City of Westminster,https://www.immersivedoctorwho.com/event/doctor-who-time-fracture,?100023474930,E09000033,West End,E05000649,-0.14819517,51.513235,528595.2726,180992.7486
Wildcard Theatre Company,18 Balderton Street,,NA,City of Westminster,https://www.wildcardtheatre.co.uk/,?100023474860 ,E09000033,West End,E05000649,-0.15254592,51.513277,528293.2758,180989.7902
Graeae Theatre Company,138 Kingsland Road,,NA,Hackney,https://graeae.org/event/,?100022990986 ,E09000012,Haggerston,E05009375,-0.07683844,51.532797,533489.163,183295.7811
Southwark Park Galleries ,1 Park Approach,Southwark Park,NA,Southwark,https://southwarkparkgalleries.org/,?10000811264 ,E09000028,Rotherhithe,E05011112,-0.053931951,51.494147,535192.1915,179039.8886
Michael Frayn Theatre ,70 London Road,,NA,Kingston upon Thames,https://www.michaelfrayntheatre.com/,,E09000021,,,-0.29582,51.41049,518618.0728,169318.3642
The Hammond Theatre,Hanworth Rd,Hampton,NA,Richmond upon Thames,https://www.thehammondtheatre.co.uk/,,E09000027,,,-0.37191,51.42877,513281.3313,171230.8495
Stanley Arts,12 South Norwood Hill,South Norwood,NA,Croydon,https://stanleyarts.org/,1.00024E+11,E09000008,South Norwood,E05011485,-0.075329996,51.400257,533981.2138,168560.0568
Oxford House Theatre,87 Derbyshire Street,,NA,Tower Hamlets,http://www.oxfordhouse.org.uk,6089004,E09000030,St Peter's,E05009331,-0.061510951,51.526367,534571.1484,182608.8377
Jazzbourne,443 New Cross Road,,NA,Lewisham,https://www.jazzbourne.com/,1.00023E+11,E09000023,New Cross,E05000449,-0.030216617,51.475828,536893.2038,177046.8951
RADA,Malet Street,,NA,Camden,https://www.rada.ac.uk/about-us/venue-hire/bar-and-cafe/,5110590,E09000007,Bloomsbury,E05000129,-0.13157747,51.521704,529724.2397,181963.8148
RADA Studios,16 Chenies Street,,NA,Camden,https://www.rada.ac.uk/about-us/venue-hire/rooms/,5087921,E09000007,Bloomsbury,E05000129,-0.13258564,51.520667,529657.2448,181846.7142
New London Performing Arts Centre,76 St James Lane,Muswell Hill,NA,Haringey,https://nlpac.co.uk/,10003973500,E09000014,Muswell Hill,E05000274,-0.13965084,51.588142,528976.2308,189337.6307
